{
  "type": "FeatureCollection",
  "features": [
    {
      "type": "Feature",
      "properties": {
        "norad_id": 46277,
        "name": "NEMO-HD",
        "group": "resource",
        "lat": -80.93100638712824,
        "lon": -174.22387464096167,
        "alt_km": 452.3641724843483,
        "timestamp": "2025-12-25T09:48:51.944048+00:00",
        "meta_object_name": "NEMO-HD",
        "meta_object_id": "2020-061F",
        "meta_epoch": "2025-12-25T03:59:35.073888",
        "meta_mean_motion": 15.40578878,
        "meta_eccentricity": 0.0001057,
        "meta_inclination": 97.2188,
        "meta_ra_of_asc_node": 58.1065,
        "meta_arg_of_pericenter": 52.8897,
        "meta_mean_anomaly": 307.2446,
        "meta_ephemeris_type": 0,
        "meta_classification_type": "U",
        "meta_norad_cat_id": 46277,
        "meta_element_set_no": 999,
        "meta_rev_at_epoch": 29515,
        "meta_bstar": 0.00028495,
        "meta_mean_motion_dot": 0.00011509,
        "meta_mean_motion_ddot": 0,
        "tle_line1": "1 46277U 20061F   25359.16637817  .00011509  00000+0  28495-3 0  9994",
        "tle_line2": "2 46277  97.2188  58.1065 0001057  52.8897 307.2446 15.40578878295151"
      },
      "geometry": {
        "type": "Point",
        "coordinates": [
          -174.22387464096167,
          -80.93100638712824
        ]
      }
    },
    {
      "type": "Feature",
      "properties": {
        "norad_id": 46984,
        "name": "SENTINEL-6A",
        "group": "resource",
        "lat": -14.156391654685244,
        "lon": -37.56652151463448,
        "alt_km": 1339.6103031729808,
        "timestamp": "2025-12-25T09:48:51.944058+00:00",
        "meta_object_name": "SENTINEL-6A",
        "meta_object_id": "2020-086A",
        "meta_epoch": "2025-12-24T15:55:56.858592",
        "meta_mean_motion": 12.80930713,
        "meta_eccentricity": 0.00077606,
        "meta_inclination": 66.0399,
        "meta_ra_of_asc_node": 137.5413,
        "meta_arg_of_pericenter": 269.4223,
        "meta_mean_anomaly": 90.5903,
        "meta_ephemeris_type": 0,
        "meta_classification_type": "U",
        "meta_norad_cat_id": 46984,
        "meta_element_set_no": 999,
        "meta_rev_at_epoch": 23797,
        "meta_bstar": -9.062628e-06,
        "meta_mean_motion_dot": -6.3e-07,
        "meta_mean_motion_ddot": 0,
        "tle_line1": "1 46984U 20086A   25358.66385253 -.00000063  00000+0 -90626-5 0  9996",
        "tle_line2": "2 46984  66.0399 137.5413 0007760 269.4223  90.5903 12.80930713237976"
      },
      "geometry": {
        "type": "Point",
        "coordinates": [
          -37.56652151463448,
          -14.156391654685244
        ]
      }
    },
    {
      "type": "Feature",
      "properties": {
        "norad_id": 48079,
        "name": "GAOFEN-12 02",
        "group": "resource",
        "lat": 14.92922919591327,
        "lon": 175.49964012901196,
        "alt_km": 628.0168738987595,
        "timestamp": "2025-12-25T09:48:51.944068+00:00",
        "meta_object_name": "GAOFEN-12 02",
        "meta_object_id": "2021-026A",
        "meta_epoch": "2025-12-24T23:20:30.266592",
        "meta_mean_motion": 14.80689149,
        "meta_eccentricity": 0.00035513,
        "meta_inclination": 97.9857,
        "meta_ra_of_asc_node": 352.9203,
        "meta_arg_of_pericenter": 76.5559,
        "meta_mean_anomaly": 283.6049,
        "meta_ephemeris_type": 0,
        "meta_classification_type": "U",
        "meta_norad_cat_id": 48079,
        "meta_element_set_no": 999,
        "meta_rev_at_epoch": 25598,
        "meta_bstar": 7.4383973e-05,
        "meta_mean_motion_dot": 5.19e-06,
        "meta_mean_motion_ddot": 0,
        "tle_line1": "1 48079U 21026A   25358.97257253  .00000519  00000+0  74384-4 0  9996",
        "tle_line2": "2 48079  97.9857 352.9203 0003551  76.5559 283.6049 14.80689149255981"
      },
      "geometry": {
        "type": "Point",
        "coordinates": [
          175.49964012901196,
          14.92922919591327
        ]
      }
    },
    {
      "type": "Feature",
      "properties": {
        "norad_id": 48268,
        "name": "PLEIADES NEO 3",
        "group": "resource",
        "lat": -79.64096118990075,
        "lon": 121.05004792988026,
        "alt_km": 632.3164129225479,
        "timestamp": "2025-12-25T09:48:51.944078+00:00",
        "meta_object_name": "PLEIADES NEO 3",
        "meta_object_id": "2021-034A",
        "meta_epoch": "2025-12-25T05:19:39.186048",
        "meta_mean_motion": 14.81672236,
        "meta_eccentricity": 0.0001322,
        "meta_inclination": 97.8943,
        "meta_ra_of_asc_node": 71.484,
        "meta_arg_of_pericenter": 89.3525,
        "meta_mean_anomaly": 270.784,
        "meta_ephemeris_type": 0,
        "meta_classification_type": "U",
        "meta_norad_cat_id": 48268,
        "meta_element_set_no": 999,
        "meta_rev_at_epoch": 25189,
        "meta_bstar": -2.731e-05,
        "meta_mean_motion_dot": -2.67e-06,
        "meta_mean_motion_ddot": 0,
        "tle_line1": "1 48268U 21034A   25359.22198132 -.00000267  00000+0 -27310-4 0  9993",
        "tle_line2": "2 48268  97.8943  71.4840 0001322  89.3525 270.7840 14.81672236251897"
      },
      "geometry": {
        "type": "Point",
        "coordinates": [
          121.05004792988026,
          -79.64096118990075
        ]
      }
    },
    {
      "type": "Feature",
      "properties": {
        "norad_id": 49070,
        "name": "PLEIADES NEO 4",
        "group": "resource",
        "lat": 79.57688669025787,
        "lon": -59.36628960116107,
        "alt_km": 615.8087648397504,
        "timestamp": "2025-12-25T09:48:51.944091+00:00",
        "meta_object_name": "PLEIADES NEO 4",
        "meta_object_id": "2021-073E",
        "meta_epoch": "2025-12-25T02:53:45.901824",
        "meta_mean_motion": 14.8167404,
        "meta_eccentricity": 0.0001236,
        "meta_inclination": 97.895,
        "meta_ra_of_asc_node": 71.3799,
        "meta_arg_of_pericenter": 95.5277,
        "meta_mean_anomaly": 264.6077,
        "meta_ephemeris_type": 0,
        "meta_classification_type": "U",
        "meta_norad_cat_id": 49070,
        "meta_element_set_no": 999,
        "meta_rev_at_epoch": 23559,
        "meta_bstar": -2.322e-05,
        "meta_mean_motion_dot": -2.35e-06,
        "meta_mean_motion_ddot": 0,
        "tle_line1": "1 49070U 21073E   25359.12067016 -.00000235  00000+0 -23220-4 0  9994",
        "tle_line2": "2 49070  97.8950  71.3799 0001236  95.5277 264.6077 14.81674040235594"
      },
      "geometry": {
        "type": "Point",
        "coordinates": [
          -59.36628960116107,
          79.57688669025787
        ]
      }
    },
    {
      "type": "Feature",
      "properties": {
        "norad_id": 49260,
        "name": "LANDSAT 9",
        "group": "resource",
        "lat": 72.78105985951642,
        "lon": 39.57775183794343,
        "alt_km": 694.7634539465134,
        "timestamp": "2025-12-25T09:48:51.944101+00:00",
        "meta_object_name": "LANDSAT 9",
        "meta_object_id": "2021-088A",
        "meta_epoch": "2025-12-24T18:38:23.131104",
        "meta_mean_motion": 14.57109853,
        "meta_eccentricity": 0.00011162,
        "meta_inclination": 98.2078,
        "meta_ra_of_asc_node": 66.7123,
        "meta_arg_of_pericenter": 93.3243,
        "meta_mean_anomaly": 266.8083,
        "meta_ephemeris_type": 0,
        "meta_classification_type": "U",
        "meta_norad_cat_id": 49260,
        "meta_element_set_no": 999,
        "meta_rev_at_epoch": 22560,
        "meta_bstar": 0.00010507597,
        "meta_mean_motion_dot": 4.28e-06,
        "meta_mean_motion_ddot": 0,
        "tle_line1": "1 49260U 21088A   25358.77665661  .00000428  00000+0  10508-3 0  9997",
        "tle_line2": "2 49260  98.2078  66.7123 0001116  93.3243 266.8083 14.57109853225606"
      },
      "geometry": {
        "type": "Point",
        "coordinates": [
          39.57775183794343,
          72.78105985951642
        ]
      }
    },
    {
      "type": "Feature",
      "properties": {
        "norad_id": 51444,
        "name": "CSG-2",
        "group": "resource",
        "lat": 28.27364533661005,
        "lon": 4.8130899621961385,
        "alt_km": 620.9820479643668,
        "timestamp": "2025-12-25T09:48:51.944111+00:00",
        "meta_object_name": "CSG-2",
        "meta_object_id": "2022-008A",
        "meta_epoch": "2025-12-24T23:24:45.029952",
        "meta_mean_motion": 14.82154748,
        "meta_eccentricity": 0.00014619,
        "meta_inclination": 97.8803,
        "meta_ra_of_asc_node": 180.1142,
        "meta_arg_of_pericenter": 81.2598,
        "meta_mean_anomaly": 278.8781,
        "meta_ephemeris_type": 0,
        "meta_classification_type": "U",
        "meta_norad_cat_id": 51444,
        "meta_element_set_no": 999,
        "meta_rev_at_epoch": 21078,
        "meta_bstar": 2.5784814e-05,
        "meta_mean_motion_dot": 1.53e-06,
        "meta_mean_motion_ddot": 0,
        "tle_line1": "1 51444U 22008A   25358.97552118  .00000153  00000+0  25785-4 0  9990",
        "tle_line2": "2 51444  97.8803 180.1142 0001461  81.2598 278.8781 14.82154748210780"
      },
      "geometry": {
        "type": "Point",
        "coordinates": [
          4.8130899621961385,
          28.27364533661005
        ]
      }
    }
  ]
}